[{"OBJECT_NAME":"JILIN-1 GAOFEN 03D49","OBJECT_ID":"2022-167N","EPOCH":"2026-03-09T23:57:17.118720","MEAN_MOTION":15.3490547,"ECCENTRICITY":0.00068038,"INCLINATION":97.6714,"RA_OF_ASC_NODE":234.8733,"ARG_OF_PERICENTER":127.8933,"MEAN_ANOMALY":232.2925,"EPHEMERIS_TYPE":0,"CLASSIFICATION_TYPE":"U","NORAD_CAT_ID":54694,"ELEMENT_SET_NO":999,"REV_AT_EPOCH":18026,"BSTAR":0.00051753854,"MEAN_MOTION_DOT":0.00017467,"MEAN_MOTION_DDOT":0},{"OBJECT_NAME":"STARLINK-36315","OBJECT_ID":"2026-026L","EPOCH":"2026-03-09T22:00:01.999584","MEAN_MOTION":15.48146499,"ECCENTRICITY":0.0001862,"INCLINATION":97.2849,"RA_OF_ASC_NODE":123.4838,"ARG_OF_PERICENTER":92.9236,"MEAN_ANOMALY":83.2277,"EPHEMERIS_TYPE":0,"CLASSIFICATION_TYPE":"U","NORAD_CAT_ID":67731,"ELEMENT_SET_NO":999,"REV_AT_EPOCH":535,"BSTAR":-0.044727238,"MEAN_MOTION_DOT":-0.02085772,"MEAN_MOTION_DDOT":0}]
